[{"OBJECT_NAME":"STARLINK-4036","OBJECT_ID":"2022-062H","EPOCH":"2025-08-05T11:20:31.778592","MEAN_MOTION":15.08839975,"ECCENTRICITY":0.0001244,"INCLINATION":53.2175,"RA_OF_ASC_NODE":284.7587,"ARG_OF_PERICENTER":86.1003,"MEAN_ANOMALY":274.0131,"EPHEMERIS_TYPE":0,"CLASSIFICATION_TYPE":"U","NORAD_CAT_ID":52837,"ELEMENT_SET_NO":999,"REV_AT_EPOCH":17314,"BSTAR":8.2738e-5,"MEAN_MOTION_DOT":1.029e-5,"MEAN_MOTION_DDOT":0},{"OBJECT_NAME":"STARLINK-4092","OBJECT_ID":"2022-062J","EPOCH":"2025-08-05T11:25:49.829952","MEAN_MOTION":15.0883565,"ECCENTRICITY":0.0001194,"INCLINATION":53.2174,"RA_OF_ASC_NODE":284.7319,"ARG_OF_PERICENTER":91.7544,"MEAN_ANOMALY":268.3584,"EPHEMERIS_TYPE":0,"CLASSIFICATION_TYPE":"U","NORAD_CAT_ID":52838,"ELEMENT_SET_NO":999,"REV_AT_EPOCH":17314,"BSTAR":3.7803e-5,"MEAN_MOTION_DOT":3.14e-6,"MEAN_MOTION_DDOT":0},{"OBJECT_NAME":"STARLINK-4048","OBJECT_ID":"2022-062K","EPOCH":"2025-08-05T14:20:42.122400","MEAN_MOTION":15.08842236,"ECCENTRICITY":0.0001285,"INCLINATION":53.2178,"RA_OF_ASC_NODE":284.1983,"ARG_OF_PERICENTER":86.7842,"MEAN_ANOMALY":273.3297,"EPHEMERIS_TYPE":0,"CLASSIFICATION_TYPE":"U","NORAD_CAT_ID":52839,"ELEMENT_SET_NO":999,"REV_AT_EPOCH":17316,"BSTAR":1.5011e-5,"MEAN_MOTION_DOT":-4.9e-7,"MEAN_MOTION_DDOT":0},{"OBJECT_NAME":"STARLINK-4049","OBJECT_ID":"2022-062L","EPOCH":"2025-08-05T13:06:31.719744","MEAN_MOTION":15.08839874,"ECCENTRICITY":0.000119,"INCLINATION":53.2174,"RA_OF_ASC_NODE":284.5432,"ARG_OF_PERICENTER":84.901,"MEAN_ANOMALY":275.2118,"EPHEMERIS_TYPE":0,"CLASSIFICATION_TYPE":"U","NORAD_CAT_ID":52840,"ELEMENT_SET_NO":999,"REV_AT_EPOCH":17315,"BSTAR":8.8856e-5,"MEAN_MOTION_DOT":1.127e-5,"MEAN_MOTION_DDOT":0},{"OBJECT_NAME":"STARLINK-4065","OBJECT_ID":"2022-062M","EPOCH":"2025-08-05T10:54:02.435904","MEAN_MOTION":15.08838405,"ECCENTRICITY":0.0001266,"INCLINATION":53.2173,"RA_OF_ASC_NODE":284.8427,"ARG_OF_PERICENTER":89.4275,"MEAN_ANOMALY":270.6862,"EPHEMERIS_TYPE":0,"CLASSIFICATION_TYPE":"U","NORAD_CAT_ID":52841,"ELEMENT_SET_NO":999,"REV_AT_EPOCH":17314,"BSTAR":2.8939e-5,"MEAN_MOTION_DOT":1.73e-6,"MEAN_MOTION_DDOT":0},{"OBJECT_NAME":"STARLINK-4046","OBJECT_ID":"2022-062N","EPOCH":"2025-08-05T11:15:13.408416","MEAN_MOTION":15.08837174,"ECCENTRICITY":0.0001188,"INCLINATION":53.2178,"RA_OF_ASC_NODE":284.6987,"ARG_OF_PERICENTER":86.674,"MEAN_ANOMALY":273.4388,"EPHEMERIS_TYPE":0,"CLASSIFICATION_TYPE":"U","NORAD_CAT_ID":52842,"ELEMENT_SET_NO":999,"REV_AT_EPOCH":17314,"BSTAR":1.0336e-5,"MEAN_MOTION_DOT":-1.23e-6,"MEAN_MOTION_DDOT":0},{"OBJECT_NAME":"STARLINK-4188","OBJECT_ID":"2022-062P","EPOCH":"2025-08-05T10:43:26.614848","MEAN_MOTION":15.08836786,"ECCENTRICITY":9.1e-5,"INCLINATION":53.2169,"RA_OF_ASC_NODE":284.8748,"ARG_OF_PERICENTER":83.1329,"MEAN_ANOMALY":276.9767,"EPHEMERIS_TYPE":0,"CLASSIFICATION_TYPE":"U","NORAD_CAT_ID":52843,"ELEMENT_SET_NO":999,"REV_AT_EPOCH":17314,"BSTAR":3.161e-5,"MEAN_MOTION_DOT":2.15e-6,"MEAN_MOTION_DDOT":0},{"OBJECT_NAME":"STARLINK-4208","OBJECT_ID":"2022-062Q","EPOCH":"2025-08-05T11:04:37.866432","MEAN_MOTION":15.08841637,"ECCENTRICITY":0.0001301,"INCLINATION":53.2178,"RA_OF_ASC_NODE":284.8092,"ARG_OF_PERICENTER":87.5414,"MEAN_ANOMALY":272.5727,"EPHEMERIS_TYPE":0,"CLASSIFICATION_TYPE":"U","NORAD_CAT_ID":52844,"ELEMENT_SET_NO":999,"REV_AT_EPOCH":17314,"BSTAR":7.9305e-5,"MEAN_MOTION_DOT":9.75e-6,"MEAN_MOTION_DDOT":0},{"OBJECT_NAME":"STARLINK-4168","OBJECT_ID":"2022-062R","EPOCH":"2025-08-05T10:48:44.947872","MEAN_MOTION":15.08840269,"ECCENTRICITY":0.0001209,"INCLINATION":53.2173,"RA_OF_ASC_NODE":284.9258,"ARG_OF_PERICENTER":90.1082,"MEAN_ANOMALY":270.0048,"EPHEMERIS_TYPE":0,"CLASSIFICATION_TYPE":"U","NORAD_CAT_ID":52845,"ELEMENT_SET_NO":999,"REV_AT_EPOCH":17314,"BSTAR":3.4696e-5,"MEAN_MOTION_DOT":2.64e-6,"MEAN_MOTION_DDOT":0},{"OBJECT_NAME":"STARLINK-4212","OBJECT_ID":"2022-062S","EPOCH":"2025-08-05T14:00:53.422560","MEAN_MOTION":15.08838916,"ECCENTRICITY":0.000107,"INCLINATION":53.2173,"RA_OF_ASC_NODE":284.2694,"ARG_OF_PERICENTER":83.0157,"MEAN_ANOMALY":277.0957,"EPHEMERIS_TYPE":0,"CLASSIFICATION_TYPE":"U","NORAD_CAT_ID":52846,"ELEMENT_SET_NO":999,"REV_AT_EPOCH":17316,"BSTAR":7.2606e-6,"MEAN_MOTION_DOT":-1.72e-6,"MEAN_MOTION_DDOT":0},{"OBJECT_NAME":"STARLINK-4206","OBJECT_ID":"2022-062T","EPOCH":"2025-08-05T12:08:13.815744","MEAN_MOTION":15.08840065,"ECCENTRICITY":0.0001318,"INCLINATION":53.218,"RA_OF_ASC_NODE":284.6102,"ARG_OF_PERICENTER":76.1584,"MEAN_ANOMALY":283.9555,"EPHEMERIS_TYPE":0,"CLASSIFICATION_TYPE":"U","NORAD_CAT_ID":52847,"ELEMENT_SET_NO":999,"REV_AT_EPOCH":17315,"BSTAR":4.9157e-5,"MEAN_MOTION_DOT":4.95e-6,"MEAN_MOTION_DDOT":0},{"OBJECT_NAME":"STARLINK-4202","OBJECT_ID":"2022-062U","EPOCH":"2025-08-05T10:59:20.184864","MEAN_MOTION":15.08840363,"ECCENTRICITY":0.0001175,"INCLINATION":53.2181,"RA_OF_ASC_NODE":284.8262,"ARG_OF_PERICENTER":88.2692,"MEAN_ANOMALY":271.8435,"EPHEMERIS_TYPE":0,"CLASSIFICATION_TYPE":"U","NORAD_CAT_ID":52848,"ELEMENT_SET_NO":999,"REV_AT_EPOCH":17314,"BSTAR":2.7671e-5,"MEAN_MOTION_DOT":1.53e-6,"MEAN_MOTION_DDOT":0},{"OBJECT_NAME":"STARLINK-4197","OBJECT_ID":"2022-062V","EPOCH":"2025-08-05T13:34:20.040672","MEAN_MOTION":15.08842719,"ECCENTRICITY":0.0001343,"INCLINATION":53.2169,"RA_OF_ASC_NODE":274.3428,"ARG_OF_PERICENTER":86.1486,"MEAN_ANOMALY":273.966,"EPHEMERIS_TYPE":0,"CLASSIFICATION_TYPE":"U","NORAD_CAT_ID":52849,"ELEMENT_SET_NO":999,"REV_AT_EPOCH":17329,"BSTAR":8.4656e-5,"MEAN_MOTION_DOT":1.06e-5,"MEAN_MOTION_DDOT":0},{"OBJECT_NAME":"STARLINK-4187","OBJECT_ID":"2022-062W","EPOCH":"2025-08-05T11:27:16.465824","MEAN_MOTION":15.08839076,"ECCENTRICITY":9.46e-5,"INCLINATION":53.2172,"RA_OF_ASC_NODE":285.0943,"ARG_OF_PERICENTER":85.1865,"MEAN_ANOMALY":274.9235,"EPHEMERIS_TYPE":0,"CLASSIFICATION_TYPE":"U","NORAD_CAT_ID":52850,"ELEMENT_SET_NO":999,"REV_AT_EPOCH":17314,"BSTAR":9.2681e-5,"MEAN_MOTION_DOT":1.188e-5,"MEAN_MOTION_DDOT":0},{"OBJECT_NAME":"STARLINK-3809","OBJECT_ID":"2022-062X","EPOCH":"2025-08-05T10:18:15.692256","MEAN_MOTION":15.08840818,"ECCENTRICITY":7.31e-5,"INCLINATION":53.2171,"RA_OF_ASC_NODE":274.9534,"ARG_OF_PERICENTER":82.1436,"MEAN_ANOMALY":277.9639,"EPHEMERIS_TYPE":0,"CLASSIFICATION_TYPE":"U","NORAD_CAT_ID":52851,"ELEMENT_SET_NO":999,"REV_AT_EPOCH":17327,"BSTAR":2.7917e-5,"MEAN_MOTION_DOT":1.57e-6,"MEAN_MOTION_DDOT":0},{"OBJECT_NAME":"STARLINK-4184","OBJECT_ID":"2022-062Y","EPOCH":"2025-08-05T13:39:38.200896","MEAN_MOTION":15.0883928,"ECCENTRICITY":0.0001183,"INCLINATION":53.2176,"RA_OF_ASC_NODE":274.3259,"ARG_OF_PERICENTER":87.3976,"MEAN_ANOMALY":272.7151,"EPHEMERIS_TYPE":0,"CLASSIFICATION_TYPE":"U","NORAD_CAT_ID":52852,"ELEMENT_SET_NO":999,"REV_AT_EPOCH":17329,"BSTAR":8.6675e-6,"MEAN_MOTION_DOT":-1.5e-6,"MEAN_MOTION_DDOT":0},{"OBJECT_NAME":"STARLINK-4189","OBJECT_ID":"2022-062Z","EPOCH":"2025-08-05T13:14:30.977952","MEAN_MOTION":15.08838634,"ECCENTRICITY":0.00012,"INCLINATION":53.2169,"RA_OF_ASC_NODE":274.3747,"ARG_OF_PERICENTER":89.227,"MEAN_ANOMALY":270.886,"EPHEMERIS_TYPE":0,"CLASSIFICATION_TYPE":"U","NORAD_CAT_ID":52853,"ELEMENT_SET_NO":999,"REV_AT_EPOCH":17329,"BSTAR":7.842e-5,"MEAN_MOTION_DOT":9.6e-6,"MEAN_MOTION_DDOT":0}]
