STARLINK-4036           
1 52837U 22062H   25217.47259003  .00001029  00000+0  82738-4 0  9997
2 52837  53.2175 284.7587 0001244  86.1003 274.0131 15.08839975173149
STARLINK-4092           
1 52838U 22062J   25217.47627118  .00000314  00000+0  37803-4 0  9993
2 52838  53.2174 284.7319 0001194  91.7544 268.3584 15.08835650173142
STARLINK-4048           
1 52839U 22062K   25217.59770975 -.00000049  00000+0  15011-4 0  9990
2 52839  53.2178 284.1983 0001285  86.7842 273.3297 15.08842236173161
STARLINK-4049           
1 52840U 22062L   25217.54620046  .00001127  00000+0  88856-4 0  9994
2 52840  53.2174 284.5432 0001190  84.9010 275.2118 15.08839874173150
STARLINK-4065           
1 52841U 22062M   25217.45419486  .00000173  00000+0  28939-4 0  9995
2 52841  53.2173 284.8427 0001266  89.4275 270.6862 15.08838405173147
STARLINK-4046           
1 52842U 22062N   25217.46890519 -.00000123  00000+0  10336-4 0  9995
2 52842  53.2178 284.6987 0001188  86.6740 273.4388 15.08837174173147
STARLINK-4188           
1 52843U 22062P   25217.44683582  .00000215  00000+0  31610-4 0  9993
2 52843  53.2169 284.8748 0000910  83.1329 276.9767 15.08836786173149
STARLINK-4208           
1 52844U 22062Q   25217.46154938  .00000975  00000+0  79305-4 0  9990
2 52844  53.2178 284.8092 0001301  87.5414 272.5727 15.08841637173149
STARLINK-4168           
1 52845U 22062R   25217.45052023  .00000264  00000+0  34696-4 0  9997
2 52845  53.2173 284.9258 0001209  90.1082 270.0048 15.08840269173147
STARLINK-4212           
1 52846U 22062S   25217.58395165 -.00000172  00000+0  72606-5 0  9992
2 52846  53.2173 284.2694 0001070  83.0157 277.0957 15.08838916173169
STARLINK-4206           
1 52847U 22062T   25217.50571546  .00000495  00000+0  49157-4 0  9995
2 52847  53.2180 284.6102 0001318  76.1584 283.9555 15.08840065173155
STARLINK-4202           
1 52848U 22062U   25217.45787251  .00000153  00000+0  27671-4 0  9990
2 52848  53.2181 284.8262 0001175  88.2692 271.8435 15.08840363173144
STARLINK-4197           
1 52849U 22062V   25217.56550973  .00001060  00000+0  84656-4 0  9996
2 52849  53.2169 274.3428 0001343  86.1486 273.9660 15.08842719173290
STARLINK-4187           
1 52850U 22062W   25217.47727391  .00001188  00000+0  92681-4 0  9996
2 52850  53.2172 285.0943 0000946  85.1865 274.9235 15.08839076173140
STARLINK-3809           
1 52851U 22062X   25217.42934829  .00000157  00000+0  27917-4 0  9993
2 52851  53.2171 274.9534 0000731  82.1436 277.9639 15.08840818173277
STARLINK-4184           
1 52852U 22062Y   25217.56919214 -.00000150  00000+0  86675-5 0  9991
2 52852  53.2176 274.3259 0001183  87.3976 272.7151 15.08839280173294
STARLINK-4189           
1 52853U 22062Z   25217.55174743  .00000960  00000+0  78420-4 0  9997
2 52853  53.2169 274.3747 0001200  89.2270 270.8860 15.08838634173295
